{"type":"FeatureCollection","name":"SIMULATED demo hazard zones - synthetic, not authoritative","features":[
{"type":"Feature","properties":{"feature_id":"DEMO-LS-001","hazard_type":"Landslide","risk_level":"High","event_date":"2023-07-14","remarks":"Synthetic slope-failure zone near Nongpoh (demo only)"},"geometry":{"type":"Polygon","coordinates":[[[91.84,25.86],[91.92,25.86],[91.92,25.93],[91.84,25.93],[91.84,25.86]]]}},
{"type":"Feature","properties":{"feature_id":"DEMO-LS-002","hazard_type":"Landslide","risk_level":"Very High","event_date":"2022-06-02","remarks":"Synthetic ridge zone near Umiam (demo only)"},"geometry":{"type":"Polygon","coordinates":[[[91.86,25.64],[91.93,25.64],[91.93,25.70],[91.86,25.70],[91.86,25.64]]]}},
{"type":"Feature","properties":{"feature_id":"DEMO-FL-003","hazard_type":"Flood","risk_level":"Moderate","event_date":"2024-08-20","remarks":"Synthetic low-lying flood-prone patch (demo only)"},"geometry":{"type":"Polygon","coordinates":[[[91.70,26.05],[91.78,26.05],[91.78,26.11],[91.70,26.11],[91.70,26.05]]]}},
{"type":"Feature","properties":{"feature_id":"DEMO-LS-004","hazard_type":"Landslide","risk_level":"Low","event_date":"2021-09-09","remarks":"Synthetic zone far from the corridor (demo only)"},"geometry":{"type":"Polygon","coordinates":[[[91.35,25.45],[91.40,25.45],[91.40,25.50],[91.35,25.50],[91.35,25.45]]]}}
]}
